[{"OBJECT_NAME":"STARLINK-5239","OBJECT_ID":"2022-141AC","EPOCH":"2026-03-09T23:00:49.271904","MEAN_MOTION":15.08829773,"ECCENTRICITY":0.00012816,"INCLINATION":53.2192,"RA_OF_ASC_NODE":2.5328,"ARG_OF_PERICENTER":92.887,"MEAN_ANOMALY":267.2269,"EPHEMERIS_TYPE":0,"CLASSIFICATION_TYPE":"U","NORAD_CAT_ID":54183,"ELEMENT_SET_NO":999,"REV_AT_EPOCH":18590,"BSTAR":-0.0001368178,"MEAN_MOTION_DOT":-2.464e-5,"MEAN_MOTION_DDOT":0},{"OBJECT_NAME":"OBJECT C","OBJECT_ID":"2024-205C","EPOCH":"2026-03-08T05:00:29.089728","MEAN_MOTION":15.13448144,"ECCENTRICITY":0.00443832,"INCLINATION":97.4204,"RA_OF_ASC_NODE":141.0161,"ARG_OF_PERICENTER":341.9375,"MEAN_ANOMALY":18.0277,"EPHEMERIS_TYPE":0,"CLASSIFICATION_TYPE":"U","NORAD_CAT_ID":61896,"ELEMENT_SET_NO":999,"REV_AT_EPOCH":7297,"BSTAR":0.00067176952,"MEAN_MOTION_DOT":0.00012247,"MEAN_MOTION_DDOT":0}]
